[{"OBJECT_NAME":"ONEWEB-0056","OBJECT_ID":"2020-008AE","EPOCH":"2026-06-10T04:22:23.935008","MEAN_MOTION":13.10374957,"ECCENTRICITY":0.0001937,"INCLINATION":87.8846,"RA_OF_ASC_NODE":37.6557,"ARG_OF_PERICENTER":89.3953,"MEAN_ANOMALY":270.7396,"EPHEMERIS_TYPE":0,"CLASSIFICATION_TYPE":"U","NORAD_CAT_ID":45159,"ELEMENT_SET_NO":999,"REV_AT_EPOCH":30726,"BSTAR":0.0018812000000000002,"MEAN_MOTION_DOT":6.69e-06,"MEAN_MOTION_DDOT":0.0},{"OBJECT_NAME":"ONEWEB-0057","OBJECT_ID":"2020-008AF","EPOCH":"2026-06-10T02:56:41.759520","MEAN_MOTION":13.10369192,"ECCENTRICITY":0.0002233,"INCLINATION":87.8839,"RA_OF_ASC_NODE":37.6799,"ARG_OF_PERICENTER":74.0261,"MEAN_ANOMALY":286.1112,"EPHEMERIS_TYPE":0,"CLASSIFICATION_TYPE":"U","NORAD_CAT_ID":45160,"ELEMENT_SET_NO":999,"REV_AT_EPOCH":30742,"BSTAR":0.00069675,"MEAN_MOTION_DOT":2.56e-06,"MEAN_MOTION_DDOT":0.0},{"OBJECT_NAME":"ONEWEB-0058","OBJECT_ID":"2020-008AG","EPOCH":"2026-06-10T04:27:32.599872","MEAN_MOTION":13.10372131,"ECCENTRICITY":0.0001618,"INCLINATION":87.8834,"RA_OF_ASC_NODE":37.674,"ARG_OF_PERICENTER":79.3299,"MEAN_ANOMALY":280.801,"EPHEMERIS_TYPE":0,"CLASSIFICATION_TYPE":"U","NORAD_CAT_ID":45161,"ELEMENT_SET_NO":999,"REV_AT_EPOCH":30750,"BSTAR":0.0018165000000000002,"MEAN_MOTION_DOT":6.47e-06,"MEAN_MOTION_DDOT":0.0},{"OBJECT_NAME":"ONEWEB-0059","OBJECT_ID":"2020-008AH","EPOCH":"2026-06-10T04:22:45.877152","MEAN_MOTION":13.10374233,"ECCENTRICITY":0.0001714,"INCLINATION":87.8834,"RA_OF_ASC_NODE":37.6735,"ARG_OF_PERICENTER":74.5402,"MEAN_ANOMALY":285.5915,"EPHEMERIS_TYPE":0,"CLASSIFICATION_TYPE":"U","NORAD_CAT_ID":45162,"ELEMENT_SET_NO":999,"REV_AT_EPOCH":30740,"BSTAR":0.0018095000000000001,"MEAN_MOTION_DOT":6.44e-06,"MEAN_MOTION_DDOT":0.0},{"OBJECT_NAME":"ONEWEB-0062","OBJECT_ID":"2020-008AJ","EPOCH":"2026-06-10T03:05:51.193536","MEAN_MOTION":13.10369116,"ECCENTRICITY":0.0001402,"INCLINATION":87.8843,"RA_OF_ASC_NODE":37.6709,"ARG_OF_PERICENTER":88.4446,"MEAN_ANOMALY":271.6842,"EPHEMERIS_TYPE":0,"CLASSIFICATION_TYPE":"U","NORAD_CAT_ID":45163,"ELEMENT_SET_NO":999,"REV_AT_EPOCH":30726,"BSTAR":-0.00017303,"MEAN_MOTION_DOT":-4.8e-07,"MEAN_MOTION_DDOT":0.0},{"OBJECT_NAME":"ONEWEB-0065","OBJECT_ID":"2020-008AK","EPOCH":"2026-06-09T22:23:47.723136","MEAN_MOTION":13.10375713,"ECCENTRICITY":0.0002167,"INCLINATION":87.8848,"RA_OF_ASC_NODE":37.7179,"ARG_OF_PERICENTER":81.6326,"MEAN_ANOMALY":278.5047,"EPHEMERIS_TYPE":0,"CLASSIFICATION_TYPE":"U","NORAD_CAT_ID":45164,"ELEMENT_SET_NO":999,"REV_AT_EPOCH":30693,"BSTAR":-0.00019417000000000002,"MEAN_MOTION_DOT":-5.5e-07,"MEAN_MOTION_DDOT":0.0},{"OBJECT_NAME":"ONEWEB-0066","OBJECT_ID":"2020-020A","EPOCH":"2026-06-10T03:03:26.073504","MEAN_MOTION":13.1142008,"ECCENTRICITY":0.0001728,"INCLINATION":87.8894,"RA_OF_ASC_NODE":22.4767,"ARG_OF_PERICENTER":78.4918,"MEAN_ANOMALY":281.6404,"EPHEMERIS_TYPE":0,"CLASSIFICATION_TYPE":"U","NORAD_CAT_ID":45424,"ELEMENT_SET_NO":999,"REV_AT_EPOCH":30175,"BSTAR":0.00074041,"MEAN_MOTION_DOT":2.75e-06,"MEAN_MOTION_DDOT":0.0},{"OBJECT_NAME":"ONEWEB-0067","OBJECT_ID":"2020-020B","EPOCH":"2026-06-10T03:58:02.673408","MEAN_MOTION":13.11422131,"ECCENTRICITY":0.0001974,"INCLINATION":87.8911,"RA_OF_ASC_NODE":22.3895,"ARG_OF_PERICENTER":82.2161,"MEAN_ANOMALY":277.9191,"EPHEMERIS_TYPE":0,"CLASSIFICATION_TYPE":"U","NORAD_CAT_ID":45425,"ELEMENT_SET_NO":999,"REV_AT_EPOCH":30181,"BSTAR":-0.0005063800000000001,"MEAN_MOTION_DOT":-1.67e-06,"MEAN_MOTION_DDOT":0.0},{"OBJECT_NAME":"ONEWEB-0080","OBJECT_ID":"2020-020C","EPOCH":"2026-06-10T03:57:21.216960","MEAN_MOTION":13.11415512,"ECCENTRICITY":0.0001525,"INCLINATION":87.8901,"RA_OF_ASC_NODE":22.4645,"ARG_OF_PERICENTER":89.9587,"MEAN_ANOMALY":270.1715,"EPHEMERIS_TYPE":0,"CLASSIFICATION_TYPE":"U","NORAD_CAT_ID":45426,"ELEMENT_SET_NO":999,"REV_AT_EPOCH":30178,"BSTAR":-0.00053099,"MEAN_MOTION_DOT":-1.75e-06,"MEAN_MOTION_DDOT":0.0},{"OBJECT_NAME":"ONEWEB-0090","OBJECT_ID":"2020-020D","EPOCH":"2026-06-10T02:48:58.724640","MEAN_MOTION":13.11418793,"ECCENTRICITY":0.0001748,"INCLINATION":87.8904,"RA_OF_ASC_NODE":22.4789,"ARG_OF_PERICENTER":85.787,"MEAN_ANOMALY":274.3458,"EPHEMERIS_TYPE":0,"CLASSIFICATION_TYPE":"U","NORAD_CAT_ID":45427,"ELEMENT_SET_NO":999,"REV_AT_EPOCH":30174,"BSTAR":-0.0011990000000000002,"MEAN_MOTION_DOT":-4.12e-06,"MEAN_MOTION_DDOT":0.0},{"OBJECT_NAME":"ONEWEB-0061","OBJECT_ID":"2020-020E","EPOCH":"2026-06-10T03:34:59.268576","MEAN_MOTION":13.11416645,"ECCENTRICITY":0.000176,"INCLINATION":87.89,"RA_OF_ASC_NODE":22.4571,"ARG_OF_PERICENTER":83.3846,"MEAN_ANOMALY":276.7482,"EPHEMERIS_TYPE":0,"CLASSIFICATION_TYPE":"U","NORAD_CAT_ID":45428,"ELEMENT_SET_NO":999,"REV_AT_EPOCH":30170,"BSTAR":0.0013150999999999998,"MEAN_MOTION_DOT":4.79e-06,"MEAN_MOTION_DDOT":0.0},{"OBJECT_NAME":"ONEWEB-0081","OBJECT_ID":"2020-020F","EPOCH":"2026-06-10T03:08:19.472352","MEAN_MOTION":13.11419952,"ECCENTRICITY":0.0001864,"INCLINATION":87.8898,"RA_OF_ASC_NODE":22.4716,"ARG_OF_PERICENTER":78.1641,"MEAN_ANOMALY":281.9696,"EPHEMERIS_TYPE":0,"CLASSIFICATION_TYPE":"U","NORAD_CAT_ID":45429,"ELEMENT_SET_NO":999,"REV_AT_EPOCH":30181,"BSTAR":0.00090956,"MEAN_MOTION_DOT":3.35e-06,"MEAN_MOTION_DDOT":0.0},{"OBJECT_NAME":"ONEWEB-0069","OBJECT_ID":"2020-020G","EPOCH":"2026-06-09T21:41:21.323328","MEAN_MOTION":13.11420696,"ECCENTRICITY":0.0001827,"INCLINATION":87.8899,"RA_OF_ASC_NODE":22.5195,"ARG_OF_PERICENTER":81.3586,"MEAN_ANOMALY":278.7749,"EPHEMERIS_TYPE":0,"CLASSIFICATION_TYPE":"U","NORAD_CAT_ID":45430,"ELEMENT_SET_NO":999,"REV_AT_EPOCH":30171,"BSTAR":0.001012,"MEAN_MOTION_DOT":3.71e-06,"MEAN_MOTION_DDOT":0.0},{"OBJECT_NAME":"ONEWEB-0031","OBJECT_ID":"2020-020H","EPOCH":"2026-06-10T04:02:02.123232","MEAN_MOTION":13.11415948,"ECCENTRICITY":0.0001658,"INCLINATION":87.8888,"RA_OF_ASC_NODE":22.4724,"ARG_OF_PERICENTER":88.4548,"MEAN_ANOMALY":271.677,"EPHEMERIS_TYPE":0,"CLASSIFICATION_TYPE":"U","NORAD_CAT_ID":45431,"ELEMENT_SET_NO":999,"REV_AT_EPOCH":30173,"BSTAR":-0.00078339,"MEAN_MOTION_DOT":-2.65e-06,"MEAN_MOTION_DDOT":0.0},{"OBJECT_NAME":"ONEWEB-0027","OBJECT_ID":"2020-020J","EPOCH":"2026-06-10T06:31:09.048000","MEAN_MOTION":13.16054233,"ECCENTRICITY":0.0001863,"INCLINATION":87.9148,"RA_OF_ASC_NODE":7.2387,"ARG_OF_PERICENTER":97.7506,"MEAN_ANOMALY":262.3836,"EPHEMERIS_TYPE":0,"CLASSIFICATION_TYPE":"U","NORAD_CAT_ID":45432,"ELEMENT_SET_NO":999,"REV_AT_EPOCH":30544,"BSTAR":-1.9070000000000002e-05,"MEAN_MOTION_DOT":6e-08,"MEAN_MOTION_DDOT":0.0},{"OBJECT_NAME":"ONEWEB-0064","OBJECT_ID":"2020-020K","EPOCH":"2026-06-10T02:09:43.415712","MEAN_MOTION":13.11414051,"ECCENTRICITY":0.0001741,"INCLINATION":87.8894,"RA_OF_ASC_NODE":22.4795,"ARG_OF_PERICENTER":89.4708,"MEAN_ANOMALY":270.662,"EPHEMERIS_TYPE":0,"CLASSIFICATION_TYPE":"U","NORAD_CAT_ID":45433,"ELEMENT_SET_NO":999,"REV_AT_EPOCH":30175,"BSTAR":-0.0005224800000000001,"MEAN_MOTION_DOT":-1.72e-06,"MEAN_MOTION_DDOT":0.0}]